{
  "landusages" : [ {
    "type" : "water_geometry",
    "area" : 0.33798528
  }, {
    "type" : "commercial",
    "area" : 0.2389836
  }, {
    "type" : "yes",
    "area" : 0.05162212
  }, {
    "type" : "park",
    "area" : 0.0515494
  }, {
    "type" : "institutional",
    "area" : 0.03941252
  }, {
    "type" : "construction",
    "area" : 0.018661698
  }, {
    "type" : "bridge",
    "area" : 0.013543548
  }, {
    "type" : "residential",
    "area" : 0.0103860255
  } ],
  "amenities" : [ {
    "type" : "road",
    "count" : 1334
  }, {
    "type" : "apartments",
    "count" : 203
  }, {
    "type" : "bench",
    "count" : 106
  }, {
    "type" : "restaurant",
    "count" : 105
  }, {
    "type" : "cafe",
    "count" : 59
  }, {
    "type" : "office",
    "count" : 52
  }, {
    "type" : "bicycle_parking",
    "count" : 40
  }, {
    "type" : "fountain",
    "count" : 33
  }, {
    "type" : "vending_machine",
    "count" : 30
  }, {
    "type" : "retail",
    "count" : 28
  }, {
    "type" : "fast_food",
    "count" : 23
  }, {
    "type" : "waste_basket",
    "count" : 23
  }, {
    "type" : "ferry_terminal",
    "count" : 21
  }, {
    "type" : "toilets",
    "count" : 18
  }, {
    "type" : "post_box",
    "count" : 12
  }, {
    "type" : "bar",
    "count" : 11
  }, {
    "type" : "pub",
    "count" : 8
  }, {
    "type" : "church",
    "count" : 7
  }, {
    "type" : "atm",
    "count" : 7
  }, {
    "type" : "ice_cream",
    "count" : 7
  }, {
    "type" : "compressed_air",
    "count" : 6
  }, {
    "type" : "parking",
    "count" : 6
  }, {
    "type" : "courthouse",
    "count" : 6
  }, {
    "type" : "bank",
    "count" : 6
  }, {
    "type" : "bicycle_rental",
    "count" : 6
  }, {
    "type" : "nightclub",
    "count" : 5
  }, {
    "type" : "museum",
    "count" : 5
  }, {
    "type" : "charging_station",
    "count" : 4
  }, {
    "type" : "taxi",
    "count" : 4
  }, {
    "type" : "theatre",
    "count" : 4
  }, {
    "type" : "public",
    "count" : 4
  }, {
    "type" : "library",
    "count" : 3
  }, {
    "type" : "school",
    "count" : 3
  }, {
    "type" : "bureau_de_change",
    "count" : 3
  }, {
    "type" : "ship",
    "count" : 3
  }, {
    "type" : "recycling",
    "count" : 3
  }, {
    "type" : "clock",
    "count" : 3
  }, {
    "type" : "concert_hall",
    "count" : 2
  }, {
    "type" : "community_centre",
    "count" : 2
  }, {
    "type" : "government",
    "count" : 2
  }, {
    "type" : "roof",
    "count" : 2
  }, {
    "type" : "parking_entrance",
    "count" : 2
  }, {
    "type" : "motorcycle_parking",
    "count" : 2
  }, {
    "type" : "industrial",
    "count" : 2
  }, {
    "type" : "garage",
    "count" : 1
  }, {
    "type" : "drinking_water",
    "count" : 1
  }, {
    "type" : "kiosk",
    "count" : 1
  }, {
    "type" : "coworking_space",
    "count" : 1
  }, {
    "type" : "tower",
    "count" : 1
  }, {
    "type" : "palace",
    "count" : 1
  }, {
    "type" : "pharmacy",
    "count" : 1
  }, {
    "type" : "parcel_locker",
    "count" : 1
  }, {
    "type" : "university",
    "count" : 1
  }, {
    "type" : "service",
    "count" : 1
  }, {
    "type" : "place_of_worship",
    "count" : 1
  }, {
    "type" : "train_station",
    "count" : 1
  }, {
    "type" : "hotel",
    "count" : 1
  }, {
    "type" : "cultural",
    "count" : 1
  }, {
    "type" : "synagogue",
    "count" : 1
  }, {
    "type" : "parking_space",
    "count" : 1
  }, {
    "type" : "social_centre",
    "count" : 1
  }, {
    "type" : "hangar",
    "count" : 1
  }, {
    "type" : "fixme",
    "count" : 1
  }, {
    "type" : "dentist",
    "count" : 1
  } ],
  "places" : [ {
    "name" : "Stockholm",
    "type" : "city",
    "zOrder" : 11,
    "population" : 829417,
    "tags" : {
      "name:se" : "Stockholbma",
      "name:sk" : "Štokholm",
      "name:ka" : "სტოკჰოლმი",
      "name:fit" : "Stokholmi",
      "name:sr" : "Стокхолм",
      "name:kk" : "Стокгольм",
      "name:pms" : "Stocòlma",
      "name:ca" : "Estocolm",
      "name:sq" : "Stokholmi",
      "name:nah" : "Estocolmo",
      "name:sv" : "Stockholm",
      "name:ko" : "스톡홀름",
      "name:kv" : "Стокгольм",
      "name:co" : "Stoccolma",
      "name:ku" : "Stokholm",
      "name:ext" : "Estocolmu",
      "name:pnb" : "سٹاکہوم",
      "name:cs" : "Stockholm",
      "name:ta" : "ஸ்டாக்ஹோம்",
      "name:ar" : "ستوكهولم",
      "name:ckb" : "ستۆکھۆڵم",
      "name:ja" : "ストックホルム",
      "name:sju" : "Tjåsskasulla",
      "name:az" : "Stokholm",
      "name:csb" : "Sztokhòlm",
      "population" : "829417",
      "name:be" : "Стакгольм",
      "name:ru" : "Стокгольм",
      "name:bg" : "Стокхолм",
      "name:lmo" : "Stuculma",
      "name:bn" : "স্টকহোম",
      "short_name" : "Sthlm",
      "name:be-tarask" : "Стакгольм",
      "name:br" : "Stockholm",
      "name:sc" : "Stoccolma",
      "name:bo" : "སི་ཏོག་ཧོ་ལིམ།",
      "name:ug" : "Stokgolm",
      "name:uk" : "Стокгольм",
      "name:smj" : "Stockhoalmma",
      "alt_name:gl" : "Stockholm",
      "name:arc" : "ܣܛܘܩܗܘܠܡ",
      "name:ml" : "സ്റ്റോക്ക്‌ഹോം",
      "name:smn" : "Tukholma",
      "ref:se:pts:postort" : "STOCKHOLM",
      "name:ur" : "سٹاکہوم",
      "name:mk" : "Стокхолм",
      "name:arz" : "ستوكهولم",
      "name:el" : "Στοκχόλμη",
      "name:mt" : "Stokkolma",
      "name:mr" : "स्टॉकहोम",
      "name:uz" : "Stokgolm",
      "alt_name:fit" : "Tokholmi",
      "name:my" : "စတော့ဟုမ်းမြို့",
      "name:en" : "Stockholm",
      "place" : "city",
      "name:eo" : "Stokholmo",
      "name:mzn" : "استکهلم",
      "wikipedia" : "sv:Stockholm",
      "name:et" : "Stockholm",
      "name:eu" : "Stockholm",
      "name:es" : "Estocolmo",
      "name:mrj" : "Стокгольм",
      "name:cv" : "Стокгольм",
      "name:tg" : "Стокҳолм",
      "name:th" : "สตอกโฮล์ม",
      "name:mhr" : "Стокгольм",
      "alt_name:he" : "שטוקהולם",
      "name:la" : "Holmia",
      "name:tt" : "Стокһолм",
      "name:vro" : "Stokholm",
      "name:da" : "Stockholm",
      "name:sma" : "Stuehkie",
      "name:de" : "Stockholm",
      "name:myv" : "Стокгольм ош",
      "name:lt" : "Stokholmas",
      "name:lv" : "Stokholma",
      "name:fy" : "Stokholm",
      "name:oc" : "Estocòlme",
      "capital" : "yes",
      "name:lzh" : "斯德哥爾摩",
      "name:wo" : "Stokolm",
      "name:lad" : "Estokolma",
      "name:ga" : "Stócólm",
      "name:vec" : "Stocólma",
      "name:os" : "Стокгольм",
      "name:gl" : "Estocolmo",
      "admin_level" : "2",
      "name:nds" : "Stockholm",
      "name:fa" : "استکهلم",
      "name:nl" : "Stockholm",
      "name:fi" : "Tukholma",
      "name:no" : "Stockholm",
      "name:diq" : "Stokholm",
      "name:lij" : "Stoccolma",
      "name" : "Stockholm",
      "name:fr" : "Stockholm",
      "name:fo" : "Stokkhólmur",
      "name:ast" : "Estocolmu",
      "name:koi" : "Стёколна",
      "name:bat-smg" : "Stuokhuolms",
      "name:hy" : "Ստոքհոլմ",
      "name:ang" : "Stoccholm",
      "name:sah" : "Стокhольм",
      "ref:se:scb" : "0336",
      "name:it" : "Stoccolma",
      "name:am" : "ስቶኮልም",
      "name:iu" : "ᔅᑑᒃᓱᓪᒻ",
      "name:is" : "Stokkhólmur",
      "name:an" : "Estocolmo",
      "name:zh" : "斯德哥爾摩",
      "name:szl" : "Sztokholm",
      "name:udm" : "Стокгольм",
      "name:pl" : "Sztokholm",
      "name:mdf" : "Стокольма",
      "name:he" : "סטוקהולם",
      "name:pt" : "Estocolmo",
      "name:hi" : "स्टॉकहोम",
      "name:yue" : "斯德哥爾摩",
      "name:kab" : "Stukulm",
      "name:ht" : "Stokolm",
      "name:hr" : "Stockholm",
      "name:zh-Hans" : "斯德哥尔摩",
      "name:yi" : "שטאקהאלם",
      "name:hu" : "Stockholm"
    }
  }, {
    "name" : "Klara",
    "type" : "neighbourhood",
    "zOrder" : 5,
    "population" : 0,
    "tags" : {
      "name" : "Klara",
      "place" : "neighbourhood",
      "wikipedia" : "sv:Klarakvarteren"
    }
  }, {
    "name" : "Gamla stan",
    "type" : "suburb",
    "zOrder" : 6,
    "population" : 0,
    "tags" : {
      "name:fi" : "Vanhakaupunki",
      "name:ru" : "Площадь Стурторьет",
      "wheelchair" : "yes",
      "name:de" : "Altstadt",
      "name:uk" : "Старе місто",
      "name" : "Gamla stan",
      "tourism" : "attraction",
      "place" : "suburb",
      "wikipedia" : "sv:Gamla stan",
      "description:en" : "The old town of Stockholm dating from C13th. Medieval alleyways, cobbled streets, old buildings, the Royal Place. (Source: Wikipedia:en)"
    }
  }, {
    "name" : "Blasieholmen",
    "type" : "locality",
    "zOrder" : 1,
    "population" : 0,
    "tags" : {
      "name" : "Blasieholmen",
      "place" : "locality",
      "wikipedia" : "sv:Blasieholmen"
    }
  } ],
  "buildings" : {
    "totalArea" : 508188,
    "totalVolume" : 9777084,
    "count" : 714,
    "maxHeight" : 116.0
  },
  "roads" : [ {
    "type" : "cycleway",
    "count" : 86
  }, {
    "type" : "tertiary",
    "count" : 120
  }, {
    "type" : "residential",
    "count" : 30
  }, {
    "type" : "service",
    "count" : 70
  }, {
    "type" : "path",
    "count" : 9
  }, {
    "type" : "trunk",
    "count" : 6
  }, {
    "type" : "pedestrian",
    "count" : 212
  }, {
    "type" : "subway",
    "count" : 30
  }, {
    "type" : "secondary",
    "count" : 22
  }, {
    "type" : "secondary_link",
    "count" : 5
  }, {
    "type" : "steps",
    "count" : 63
  }, {
    "type" : "tram",
    "count" : 21
  }, {
    "type" : "rail",
    "count" : 23
  }, {
    "type" : "unclassified",
    "count" : 119
  }, {
    "type" : "disused",
    "count" : 1
  }, {
    "type" : "footway",
    "count" : 517
  } ],
  "connections" : 0,
  "status" : "OK",
  "version" : "1",
  "elevation" : {
    "min" : 0,
    "max" : 32,
    "diff50m" : 29
  }
}