{
  "landusages" : [ {
    "type" : "peninsula",
    "area" : 1.0
  }, {
    "type" : "park",
    "area" : 0.12011523
  }, {
    "type" : "grass",
    "area" : 0.04619854
  }, {
    "type" : "yes",
    "area" : 0.0256795
  }, {
    "type" : "military",
    "area" : 0.025622457
  }, {
    "type" : "garden",
    "area" : 0.0245795
  }, {
    "type" : "forest",
    "area" : 0.017495846
  }, {
    "type" : "residential",
    "area" : 0.016922954
  }, {
    "type" : "parking",
    "area" : 0.010525835
  } ],
  "amenities" : [ {
    "type" : "road",
    "count" : 3181
  }, {
    "type" : "restaurant",
    "count" : 253
  }, {
    "type" : "apartments",
    "count" : 198
  }, {
    "type" : "ruins",
    "count" : 143
  }, {
    "type" : "bench",
    "count" : 119
  }, {
    "type" : "cafe",
    "count" : 107
  }, {
    "type" : "drinking_water",
    "count" : 78
  }, {
    "type" : "church",
    "count" : 72
  }, {
    "type" : "roof",
    "count" : 61
  }, {
    "type" : "fast_food",
    "count" : 57
  }, {
    "type" : "waste_basket",
    "count" : 48
  }, {
    "type" : "clock",
    "count" : 41
  }, {
    "type" : "ice_cream",
    "count" : 31
  }, {
    "type" : "vending_machine",
    "count" : 30
  }, {
    "type" : "temple",
    "count" : 29
  }, {
    "type" : "terrace",
    "count" : 28
  }, {
    "type" : "toilets",
    "count" : 23
  }, {
    "type" : "bar",
    "count" : 23
  }, {
    "type" : "pharmacy",
    "count" : 22
  }, {
    "type" : "bank",
    "count" : 20
  }, {
    "type" : "motorcycle_parking",
    "count" : 18
  }, {
    "type" : "post_box",
    "count" : 16
  }, {
    "type" : "residential",
    "count" : 16
  }, {
    "type" : "arch",
    "count" : 14
  }, {
    "type" : "bicycle_parking",
    "count" : 14
  }, {
    "type" : "school",
    "count" : 13
  }, {
    "type" : "atm",
    "count" : 13
  }, {
    "type" : "university",
    "count" : 12
  }, {
    "type" : "fountain",
    "count" : 12
  }, {
    "type" : "pub",
    "count" : 12
  }, {
    "type" : "telephone",
    "count" : 10
  }, {
    "type" : "retail",
    "count" : 10
  }, {
    "type" : "taxi",
    "count" : 9
  }, {
    "type" : "library",
    "count" : 9
  }, {
    "type" : "office",
    "count" : 7
  }, {
    "type" : "theatre",
    "count" : 7
  }, {
    "type" : "police",
    "count" : 7
  }, {
    "type" : "public",
    "count" : 7
  }, {
    "type" : "bureau_de_change",
    "count" : 7
  }, {
    "type" : "post_office",
    "count" : 6
  }, {
    "type" : "basilica",
    "count" : 6
  }, {
    "type" : "parking",
    "count" : 6
  }, {
    "type" : "hotel",
    "count" : 6
  }, {
    "type" : "money_transfer",
    "count" : 5
  }, {
    "type" : "recycling",
    "count" : 5
  }, {
    "type" : "chapel",
    "count" : 4
  }, {
    "type" : "cinema",
    "count" : 4
  }, {
    "type" : "kiosk",
    "count" : 4
  }, {
    "type" : "hospital",
    "count" : 4
  }, {
    "type" : "greenhouse",
    "count" : 4
  }, {
    "type" : "monastery",
    "count" : 3
  }, {
    "type" : "tower",
    "count" : 3
  }, {
    "type" : "place_of_worship",
    "count" : 3
  }, {
    "type" : "music_school",
    "count" : 3
  }, {
    "type" : "fuel",
    "count" : 3
  }, {
    "type" : "bridge",
    "count" : 3
  }, {
    "type" : "parking_entrance",
    "count" : 3
  }, {
    "type" : "garage",
    "count" : 2
  }, {
    "type" : "charging_station",
    "count" : 2
  }, {
    "type" : "bicycle_repair_station",
    "count" : 2
  }, {
    "type" : "train_station",
    "count" : 2
  }, {
    "type" : "car_rental",
    "count" : 2
  }, {
    "type" : "transportation",
    "count" : 2
  }, {
    "type" : "car_sharing",
    "count" : 2
  }, {
    "type" : "convent",
    "count" : 2
  }, {
    "type" : "citywalls",
    "count" : 2
  }, {
    "type" : "waste_disposal",
    "count" : 2
  }, {
    "type" : "internet_cafe",
    "count" : 2
  }, {
    "type" : "commercial",
    "count" : 2
  }, {
    "type" : "civic",
    "count" : 1
  }, {
    "type" : "bus_station",
    "count" : 1
  }, {
    "type" : "marketplace",
    "count" : 1
  }, {
    "type" : "veterinary",
    "count" : 1
  }, {
    "type" : "fence",
    "count" : 1
  }, {
    "type" : "baseplate",
    "count" : 1
  }, {
    "type" : "palace",
    "count" : 1
  }, {
    "type" : "doctors",
    "count" : 1
  }, {
    "type" : "government",
    "count" : 1
  }, {
    "type" : "station",
    "count" : 1
  }, {
    "type" : "obelisk",
    "count" : 1
  }, {
    "type" : "motorcycle_rental",
    "count" : 1
  }, {
    "type" : "social_facility",
    "count" : 1
  }, {
    "type" : "events_venue",
    "count" : 1
  }, {
    "type" : "townhall",
    "count" : 1
  }, {
    "type" : "watering_place",
    "count" : 1
  }, {
    "type" : "research_institute",
    "count" : 1
  }, {
    "type" : "quadrifrons",
    "count" : 1
  }, {
    "type" : "piano",
    "count" : 1
  }, {
    "type" : "nightclub",
    "count" : 1
  } ],
  "places" : [ {
    "name" : "Campidoglio",
    "type" : "locality",
    "zOrder" : 1,
    "population" : 0,
    "tags" : {
      "name:de" : "Kapitol",
      "name" : "Campidoglio",
      "name:it" : "Campidoglio",
      "tourism" : "attraction",
      "name:en" : "Capitoline Hill",
      "place" : "locality",
      "wikipedia" : "en:Capitoline Hill",
      "wikimedia_commons" : "Category:Capitol Hill (Rome)",
      "name:nl" : "Capitolijn"
    }
  }, {
    "name" : "Roma",
    "type" : "city",
    "zOrder" : 11,
    "population" : 2864731,
    "tags" : {
      "name:nan" : "Lô-má",
      "name:ka" : "რომი",
      "name:nap" : "Romma",
      "name:kk" : "Рим",
      "name:nah" : "Roma",
      "name:kn" : "ರೋಮ",
      "name:ko" : "로마",
      "name:kl" : "Roma",
      "name:nrm" : "Rome",
      "name:kv" : "Рим",
      "rank" : "0",
      "name:kw" : "Rom",
      "name:ku" : "Roma",
      "name:frp" : "Roma",
      "name:ckb" : "ڕۆم",
      "name:ja" : "ローマ",
      "population" : "2864731",
      "name:lmo" : "Roma",
      "name:jv" : "Roma",
      "name:wuu" : "罗马",
      "name:mi" : "Rōma",
      "name:mg" : "Roma",
      "name:ml" : "റോം",
      "name:mk" : "Рим",
      "name:mn" : "Ром",
      "name:mt" : "Ruma",
      "name:cbk-zam" : "Roma",
      "name:mr" : "रोम",
      "name:my" : "ရောမမြို့",
      "wikipedia" : "it:Roma",
      "website" : "https://www.comune.roma.it/",
      "name:la" : "Roma",
      "name:lb" : "Roum",
      "name:vro" : "Rooma",
      "name:li" : "Roeme",
      "name:ln" : "Roma",
      "name:lt" : "Roma",
      "name:lv" : "Roma",
      "name:fy" : "Rome",
      "name:lzh" : "羅馬",
      "name:ga" : "An Róimh",
      "name:gd" : "An Ròimh",
      "name:gn" : "Róma",
      "name:gl" : "Roma",
      "name:pap" : "Roma",
      "name:gv" : "Yn Raue",
      "ele" : "21",
      "name:vi" : "Rô-ma",
      "gfoss_id" : "5002",
      "name:vls" : "Rome",
      "name:fa" : "رم",
      "name:vo" : "Roma",
      "name:fi" : "Rooma",
      "name:diq" : "Roma",
      "name:roa-rup" : "Roma",
      "name:lij" : "Romma",
      "name" : "Roma",
      "name:fr" : "Rome",
      "name:fo" : "Róm",
      "name:ast" : "Roma",
      "name:rue" : "Рим",
      "alt_name:vi" : "La Mã",
      "name:ace" : "Roma",
      "name:zh_pinyin" : "Luómǎ",
      "name:hy" : "Հռոմ",
      "name:ia" : "Roma",
      "name:yo" : "Rómù",
      "name:id" : "Roma",
      "name:ie" : "Roma",
      "name:pcd" : "Rome",
      "name:gan" : "羅馬",
      "name:nov" : "Roma",
      "name:war" : "Roma",
      "name:io" : "Roma",
      "name:it" : "Roma",
      "name:is" : "Róm",
      "name:zh" : "羅馬/罗马",
      "name:szl" : "Rzim",
      "name:chy" : "Roma",
      "name:he" : "רומא",
      "name:cim" : "Ruam",
      "name:hi" : "रोम",
      "name:yue" : "羅馬",
      "name:gag" : "Roma",
      "name:ht" : "Ròm",
      "name:hr" : "Rim",
      "name:eml" : "Råmma",
      "name:yi" : "רוים",
      "name:hu" : "Róma",
      "name:sg" : "Rome",
      "name:bs" : "Rim",
      "name:se" : "Roma",
      "is_capital" : "country",
      "name:sk" : "Rím",
      "name:sh" : "Rim",
      "name:scn" : "Roma",
      "name:si" : "රෝමය",
      "name:so" : "Roma",
      "name:sl" : "Rim",
      "name:xmf" : "რომი",
      "name:sr" : "Рим",
      "name:pms" : "Roma",
      "name:ca" : "Roma",
      "name:sq" : "Roma",
      "name:sv" : "Rom",
      "name:sw" : "Roma",
      "name:su" : "Roma",
      "name:roa-tara" : "Rome",
      "name:co" : "Roma",
      "name:sco" : "Roum",
      "name:ext" : "Roma",
      "name:lez" : "Рим",
      "name:cr" : "ᖌᒪ",
      "name:pnb" : "روم",
      "name:cs" : "Řím",
      "name:ta" : "உரோமை நகரம்",
      "name:ar" : "روما",
      "name:ay" : "Roma",
      "name:rm" : "Roma",
      "name:rn" : "Roma",
      "name:az" : "Roma",
      "name:csb" : "Rzim",
      "name:ba" : "Рим",
      "wikimedia_commons" : "Category:Rome",
      "name:ro" : "Roma",
      "name:be" : "Рым",
      "name:ru" : "Рим",
      "name:bi" : "Rome",
      "name:bg" : "Рим",
      "name:rw" : "Roma",
      "name:bn" : "রোম",
      "name:mwl" : "Roma",
      "name:be-tarask" : "Рым",
      "name:br" : "Roma",
      "name:sc" : "Roma",
      "name:bo" : "རོ་མ།",
      "name:sa" : "रोमा",
      "name:ug" : "Rim",
      "name:uk" : "Рим",
      "name:arc" : "ܪܗܘܡܐ",
      "name:ee" : "Rome",
      "name:ur" : "روم",
      "name:arz" : "روما",
      "name:el" : "Ρώμη",
      "name:uz" : "Rim",
      "name:en" : "Rome",
      "place" : "city",
      "name:eo" : "Romo",
      "name:et" : "Rooma",
      "name:eu" : "Erroma",
      "name:es" : "Roma",
      "name:cv" : "Рим",
      "name:tg" : "Рим",
      "name:th" : "โรม",
      "name:jbo" : "romas",
      "name:mhr" : "Рим",
      "name:te" : "రోమ్",
      "name:cu" : "Римъ",
      "name:tk" : "Rim",
      "name:tl" : "Roma",
      "name:cy" : "Rhufain",
      "name:stq" : "Room",
      "name:tt" : "Рим",
      "name:da" : "Rom",
      "name:pnt" : "Ρώμη",
      "name:tr" : "Roma",
      "name:de" : "Rom",
      "name:bcl" : "Roma",
      "name:ty" : "Roma",
      "name:ceb" : "Roma",
      "name:nds-nl" : "Rome",
      "postal_code" : "00100",
      "name:oc" : "Roma",
      "capital" : "yes",
      "name:lad" : "Roma",
      "name:vec" : "Roma",
      "name:os" : "Ром",
      "name:ilo" : "Roma",
      "admin_level" : "2",
      "name:vep" : "Rim",
      "name:na" : "Roma",
      "name:ne" : "रोम",
      "name:nds" : "Rom",
      "name:nn" : "Roma",
      "name:nl" : "Rome",
      "name:no" : "Roma",
      "name:fur" : "Rome",
      "name:hif" : "Rome",
      "name:bat-smg" : "Ruoma",
      "name:ang" : "Rōm",
      "name:sah" : "Ром",
      "name:crh" : "Roma",
      "name:krc" : "Рим",
      "name:qu" : "Roma",
      "name:af" : "Rome",
      "name:am" : "ሮማ",
      "name:an" : "Roma",
      "name:udm" : "Рим",
      "name:pl" : "Rzym",
      "name:mdf" : "Рим",
      "capital_ISO3166-1" : "yes",
      "name:pt" : "Roma",
      "name:kaa" : "Rome",
      "name:zh-Hans" : "罗马",
      "name:zh-Hant" : "羅馬"
    }
  }, {
    "name" : "Viminale",
    "type" : "locality",
    "zOrder" : 1,
    "population" : 0,
    "tags" : {
      "name" : "Viminale",
      "place" : "locality"
    }
  }, {
    "name" : "Colle Palatino",
    "type" : "locality",
    "zOrder" : 1,
    "population" : 0,
    "tags" : {
      "wheelchair" : "yes",
      "name:ja" : "パラティーノの丘",
      "name:uk" : "Палатин",
      "name:pl" : "Palatyn",
      "tourism" : "attraction",
      "name:he" : "גבעת הפאלאטיום",
      "name:nl" : "Palatijn",
      "name:ru" : "Палатин",
      "name:ko" : "팔라티노언덕",
      "name:de" : "Palatin Gründungshügel Rom",
      "name:lt" : "Palatino kalva",
      "name" : "Colle Palatino",
      "name:it" : "Colle Palatino",
      "opening_hours" : "Jan 02-Feb 15,Oct 28-Dec 31 08:30-16:30; Jan 16-Mar 15 08:30-17:00; Mar 16-24 08:30-17:30; Mar 25-Aug 31 08:30-19:15; Sep 01-30 08:30-19:00",
      "name:en" : "Palatine Hill",
      "place" : "locality",
      "wikipedia" : "it:Palatino",
      "name:zh" : "帕拉提諾之丘"
    }
  } ],
  "buildings" : {
    "totalArea" : 1441416,
    "totalVolume" : 21009686,
    "count" : 4214,
    "maxHeight" : 75.0
  },
  "roads" : [ {
    "type" : "cycleway",
    "count" : 5
  }, {
    "type" : "tertiary",
    "count" : 132
  }, {
    "type" : "tertiary_link",
    "count" : 1
  }, {
    "type" : "residential",
    "count" : 367
  }, {
    "type" : "service",
    "count" : 423
  }, {
    "type" : "path",
    "count" : 39
  }, {
    "type" : "pedestrian",
    "count" : 172
  }, {
    "type" : "track",
    "count" : 8
  }, {
    "type" : "subway",
    "count" : 2
  }, {
    "type" : "secondary",
    "count" : 113
  }, {
    "type" : "steps",
    "count" : 354
  }, {
    "type" : "tram",
    "count" : 19
  }, {
    "type" : "rail",
    "count" : 12
  }, {
    "type" : "unclassified",
    "count" : 16
  }, {
    "type" : "footway",
    "count" : 1518
  } ],
  "connections" : 0,
  "status" : "OK",
  "version" : "1",
  "elevation" : {
    "min" : 14,
    "max" : 81,
    "diff50m" : 15
  }
}